CUTE-1 (CO-55)          
1 27844U 03031E   26136.98733409  .00000179  00000+0  96322-4 0  9995
2 27844  98.6746 145.9384 0008291 277.1564  82.8672 14.24315051187233
CUBESAT XI-IV (CO-57)   
1 27848U 03031J   26136.96017615  .00000150  00000+0  85081-4 0  9990
2 27848  98.6778 145.6494 0008323 298.5397  61.4943 14.23602877186932
CUBESAT XI-V            
1 28895U 05043F   26136.87452282  .00000766  00000+0  12875-3 0  9994
2 28895  98.2950 291.8469 0012953 307.9672  52.0364 14.72541900 97144
CUTE-1.7+APD II (CO-65) 
1 32785U 08021C   26137.22137544  .00003833  00000+0  24553-3 0  9991
2 32785  97.8265 118.0072 0010317 127.6161 232.6005 15.09133515980524
CANX-2                  
1 32790U 08021H   26137.18266487  .00001771  00000+0  12799-3 0  9999
2 32790  97.8621 116.3682 0011494 141.1467 219.0587 15.05374272980146
SEEDS II (CO-66)        
1 32791U 08021J   26136.91790272  .00014819  00000+0  48763-3 0  9991
2 32791  97.7519 133.3524 0004884  76.8002 283.3783 15.31610553982508
SWISSCUBE               
1 35932U 09051B   26137.17488669  .00000612  00000+0  13081-3 0  9999
2 35932  98.4056  44.5216 0005904 319.6984  40.3778 14.62416070884624
BEESAT-1                
1 35933U 09051C   26137.16829418  .00000509  00000+0  11213-3 0  9990
2 35933  98.3985  44.2149 0004735 338.8159  21.2845 14.61664968884651
ITUPSAT1                
1 35935U 09051E   26137.20059391  .00000472  00000+0  10758-3 0  9994
2 35935  98.4070  43.4724 0007145 345.7581  14.3417 14.60389568884212
TISAT 1                 
1 36799U 10035E   26136.94238334  .00015910  00000+0  54275-3 0  9998
2 36799  98.0705  80.7555 0003180  45.7057 314.4442 15.30441051862928
AEROCUBE 4.5A           
1 38767U 12048K   26137.13868655  .00150733  00000+0  82645-3 0  9993
2 38767  64.6276 138.9224 0018456 216.5912 143.3983 15.78874096367735
STRAND-1                
1 39090U 13009E   26136.72600487  .00000171  00000+0  72075-4 0  9999
2 39090  98.3916 317.7362 0007971 332.7119  27.3648 14.37143382692540
BRITE-AUSTRIA           
1 39091U 13009F   26136.44675937  .00000105  00000+0  50264-4 0  9994
2 39091  98.3987 316.6696 0009720 341.7953  18.2885 14.36528593692493
NEE-01 PEGASO           
1 39151U 13018B   26136.84514408  .00001147  00000+0  11477-3 0  9999
2 39151  98.1182 279.9712 0011304 266.7567  93.2359 14.93493026706022
POPACS 2                
1 39269U 13055E   26137.10094330  .00010777  00000+0  18540-3 0  9994
2 39269  80.9917 179.7597 0418693 293.7991  61.9854 14.90490050658588
POPACS 3                
1 39270U 13055F   26137.05156530  .00013246  00000+0  31542-3 0  9992
2 39270  81.0014 262.9222 0554830 164.6691 197.2118 14.55340641634027
ZACUBE-1 (TSHEPISOSAT)  
1 39417U 13066B   26137.14346278  .00003143  00000+0  24724-3 0  9996
2 39417  97.8122  99.3121 0041328 357.3432   2.7566 15.00932170676075
WNISAT-1                
1 39423U 13066H   26137.19204887  .00000282  00000+0  60625-4 0  9999
2 39423  97.7164 288.5550 0162380 329.9737  29.2226 14.58020644662214
TRITON-1                
1 39427U 13066M   26137.16246369  .00002205  00000+0  26892-3 0  9995
2 39427  97.8273  47.6765 0089761 336.5262  23.1865 14.81562518669496
GOMX-1                  
1 39430U 13066Q   26137.20173767  .00001039  00000+0  16268-3 0  9995
2 39430  97.6507 339.6193 0128767 176.3478 183.8701 14.69326372665363
CUBEBUG-2 (LO-74)       
1 39440U 13066AA  26137.11269428  .00001722  00000+0  16382-3 0  9992
2 39440  97.8896  85.9704 0059097 129.3570 231.2907 14.93505385672359
NEE-02 KRYSAOR          
1 39441U 13066AB  26136.90941684  .00000950  00000+0  10967-3 0  9995
2 39441  97.8884  76.3535 0066393 170.9505 189.2925 14.86491134671551
FUNCUBE-1 (AO-73)       
1 39444U 13066AE  26137.16141662  .00004600  00000+0  29075-3 0  9991
2 39444  97.8262 107.9732 0034936 311.6177  48.2060 15.09059731674984
UWE-3                   
1 39446U 13066AG  26137.13201417  .00002753  00000+0  24008-3 0  9993
2 39446  97.8683  93.0084 0050501  63.9259 296.7148 14.96738572672934
BRITE-CA1 (TORONTO)     
1 40020U 14033L   26136.78298863  .00000410  00000+0  69346-4 0  9992
2 40020  97.9695 266.2986 0078998  18.4727 341.9320 14.72631022637592
DUCHIFAT-1              
1 40021U 14033M   26137.13347860  .00065011  00000+0  83778-3 0  9997
2 40021  98.0501 192.0856 0006095 176.1135 184.0168 15.58796001650907
NANOSATC-BR1            
1 40024U 14033Q   26137.02782317  .00014134  00000+0  48321-3 0  9993
2 40024  98.0741 166.6784 0001705 299.8684  60.2385 15.30403978649214
QB50P1                  
1 40025U 14033R   26136.97103142  .00006896  00000+0  34515-3 0  9996
2 40025  98.0972 145.9407 0007928 344.3743  15.7243 15.17741337648292
QB50P2                  
1 40032U 14033Y   26136.92417875  .00005334  00000+0  29174-3 0  9991
2 40032  98.0751 131.8705 0005706 285.5578  74.5022 15.14729103647936
PERSEUS-M2              
1 40037U 14033AD  26137.15059748  .00001887  00000+0  17604-3 0  9997
2 40037  97.9949  87.0649 0013309  47.8147 312.4201 14.95410620646140
