OBJECT_NAME,OBJECT_ID,EPOCH,MEAN_MOTION,ECCENTRICITY,INCLINATION,RA_OF_ASC_NODE,ARG_OF_PERICENTER,MEAN_ANOMALY,EPHEMERIS_TYPE,CLASSIFICATION_TYPE,NORAD_CAT_ID,ELEMENT_SET_NO,REV_AT_EPOCH,BSTAR,MEAN_MOTION_DOT,MEAN_MOTION_DDOT
CUTE-1 (CO-55),2003-031E,2026-05-16T23:41:45.665376,14.24315051,.0008291,98.6746,145.9384,277.1564,82.8672,0,U,27844,999,18723,.96322E-4,.179E-5,0
CUBESAT XI-IV (CO-57),2003-031J,2026-05-16T23:02:39.219360,14.23602877,.0008323,98.6778,145.6494,298.5397,61.4943,0,U,27848,999,18693,.85081E-4,.15E-5,0
CUBESAT XI-V,2005-043F,2026-05-16T20:59:18.771648,14.72541900,.0012953,98.2950,291.8469,307.9672,52.0364,0,U,28895,999,9714,.12875E-3,.766E-5,0
CUTE-1.7+APD II (CO-65),2008-021C,2026-05-17T05:18:46.838016,15.09133515,.0010317,97.8265,118.0072,127.6161,232.6005,0,U,32785,999,98052,.24553E-3,.3833E-4,0
CANX-2,2008-021H,2026-05-17T04:23:02.244768,15.05374272,.0011494,97.8621,116.3682,141.1467,219.0587,0,U,32790,999,98014,.12799E-3,.1771E-4,0
SEEDS II (CO-66),2008-021J,2026-05-16T22:01:46.795008,15.31610553,.0004884,97.7519,133.3524,76.8002,283.3783,0,U,32791,999,98250,.48763E-3,.14819E-3,0
SWISSCUBE,2009-051B,2026-05-17T04:11:50.210016,14.62416070,.0005904,98.4056,44.5216,319.6984,40.3778,0,U,35932,999,88462,.13081E-3,.612E-5,0
BEESAT-1,2009-051C,2026-05-17T04:02:20.617152,14.61664968,.0004735,98.3985,44.2149,338.8159,21.2845,0,U,35933,999,88465,.11213E-3,.509E-5,0
ITUPSAT1,2009-051E,2026-05-17T04:48:51.313824,14.60389568,.0007145,98.4070,43.4724,345.7581,14.3417,0,U,35935,999,88421,.10758E-3,.472E-5,0
TISAT 1,2010-035E,2026-05-16T22:37:01.920576,15.30441051,.000318,98.0705,80.7555,45.7057,314.4442,0,U,36799,999,86292,.54275E-3,.1591E-3,0
AEROCUBE 4.5A,2012-048K,2026-05-17T03:19:42.517920,15.78874096,.0018456,64.6276,138.9224,216.5912,143.3983,0,U,38767,999,36773,.82645E-3,.150733E-2,0
STRAND-1,2013-009E,2026-05-16T17:25:26.820768,14.37143382,.00079719,98.3916,317.7362,332.7119,27.3648,0,U,39090,999,69254,.72074586E-4,.171E-5,0
BRITE-AUSTRIA,2013-009F,2026-05-16T10:43:20.009568,14.36528593,.000972,98.3987,316.6696,341.7953,18.2885,0,U,39091,999,69249,.50264E-4,.105E-5,0
NEE-01 PEGASO,2013-018B,2026-05-16T20:17:00.448512,14.93493026,.00113048,98.1182,279.9712,266.7567,93.2359,0,U,39151,999,70602,.11476603E-3,.1147E-4,0
POPACS 2,2013-055E,2026-05-17T02:25:21.501120,14.90490050,.0418693,80.9917,179.7597,293.7991,61.9854,0,U,39269,999,65858,.1854E-3,.10777E-3,0
POPACS 3,2013-055F,2026-05-17T01:14:15.241920,14.55340641,.055483,81.0014,262.9222,164.6691,197.2118,0,U,39270,999,63402,.31542E-3,.13246E-3,0
ZACUBE-1 (TSHEPISOSAT),2013-066B,2026-05-17T03:26:35.184192,15.00932170,.0041328,97.8122,99.3121,357.3432,2.7566,0,U,39417,999,67607,.24724E-3,.3143E-4,0
WNISAT-1,2013-066H,2026-05-17T04:36:33.022368,14.58020644,.016238,97.7164,288.5550,329.9737,29.2226,0,U,39423,999,66221,.60625E-4,.282E-5,0
TRITON-1,2013-066M,2026-05-17T03:53:56.862816,14.81562518,.0089761,97.8273,47.6765,336.5262,23.1865,0,U,39427,999,66949,.26892E-3,.2205E-4,0
GOMX-1,2013-066Q,2026-05-17T04:50:30.134688,14.69326372,.0128767,97.6507,339.6193,176.3478,183.8701,0,U,39430,999,66536,.16268E-3,.1039E-4,0
CUBEBUG-2 (LO-74),2013-066AA,2026-05-17T02:42:16.785792,14.93505385,.0059097,97.8896,85.9704,129.3570,231.2907,0,U,39440,999,67235,.16382E-3,.1722E-4,0
NEE-02 KRYSAOR,2013-066AB,2026-05-16T21:49:33.614976,14.86491134,.0066393,97.8884,76.3535,170.9505,189.2925,0,U,39441,999,67155,.10967E-3,.95E-5,0
FUNCUBE-1 (AO-73),2013-066AE,2026-05-17T03:52:26.395968,15.09059731,.0034936,97.8262,107.9732,311.6177,48.2060,0,U,39444,999,67498,.29075E-3,.46E-4,0
UWE-3,2013-066AG,2026-05-17T03:10:06.024288,14.96738572,.0050501,97.8683,93.0084,63.9259,296.7148,0,U,39446,999,67293,.24008E-3,.2753E-4,0
BRITE-CA1 (TORONTO),2014-033L,2026-05-16T18:47:30.217632,14.72631022,.00789987,97.9695,266.2986,18.4727,341.9320,0,U,40020,999,63759,.6934635E-4,.41E-5,0
DUCHIFAT-1,2014-033M,2026-05-17T03:12:12.551040,15.58796001,.0006095,98.0501,192.0856,176.1135,184.0168,0,U,40021,999,65090,.83778E-3,.65011E-3,0
NANOSATC-BR1,2014-033Q,2026-05-17T00:40:03.921888,15.30403978,.0001705,98.0741,166.6784,299.8684,60.2385,0,U,40024,999,64921,.48321E-3,.14134E-3,0
QB50P1,2014-033R,2026-05-16T23:18:17.114688,15.17741337,.0007928,98.0972,145.9407,344.3743,15.7243,0,U,40025,999,64829,.34515E-3,.6896E-4,0
QB50P2,2014-033Y,2026-05-16T22:10:49.044000,15.14729103,.0005706,98.0751,131.8705,285.5578,74.5022,0,U,40032,999,64793,.29174E-3,.5334E-4,0
PERSEUS-M2,2014-033AD,2026-05-17T03:36:51.622272,14.95410620,.0013309,97.9949,87.0649,47.8147,312.4201,0,U,40037,999,64614,.17604E-3,.1887E-4,0
